0 EPSILON DEB
1 39254U 13049B   13281.66506915  .00000080  00000-0  11191-4 0   168
2 39254 029.7086 006.1798 0182896 322.1499 036.6344 13.75079081  3361
0 EPSILON DEB
1 39254U 13049B   13283.69797792  .00000103  00000-0  33100-4 0   179
2 39254 029.7088 355.4892 0182813 339.1762 020.1443 13.75079440  3646
0 EPSILON DEB
1 39254U 13049B   13286.23913007  .00000111  00000-0  41124-4 0   186
2 39254 029.7087 342.1256 0182662 000.4822 359.5911 13.75079787  3990
0 EPSILON DEB
1 39254U 13049B   13288.48986463  .00000122  00000-0  51879-4 0   192
2 39254 029.7086 330.2884 0182585 019.3883 341.3534 13.75080156  4302
0 EPSILON DEB
1 39254U 13049B   13290.52277399  .00000121  00000-0  51146-4 0   209
2 39254 029.7083 319.5971 0182549 036.4580 324.8279 13.75080379  4589
0 EPSILON DEB
1 39254U 13049B   13293.20908445  .00000119  00000-0  49452-4 0   215
2 39254 029.7079 305.4705 0182546 059.0018 302.8354 13.75080648  4957
0 EPSILON DEB
1 39254U 13049B   13295.45973531  .00000141  00000-0  69327-4 0   221
2 39254 029.7076 293.6343 0182639 077.9007 284.1971 13.75081158  5269
